ONEWEB-0211             
1 48767U 21045A   26161.50118799  .00000127  00000+0  30118-3 0  9995
2 48767  87.9006 260.4148 0001675 121.5821 238.5473 13.16196509243561
ONEWEB-0223             
1 48768U 21045B   26161.57627706 -.00000068  00000+0 -21513-3 0  9991
2 48768  87.9011 260.5066 0001583 108.1338 251.9965 13.15543156243535
ONEWEB-0230             
1 48769U 21045C   26161.54775819  .00000009  00000+0 -94360-5 0  9994
2 48769  87.8999 260.5265 0002051  96.6529 263.4835 13.15548107243798
ONEWEB-0237             
1 48770U 21045D   26161.53664840 -.00000329  00000+0 -90821-3 0  9998
2 48770  87.9001 260.5305 0001684 100.9059 259.2261 13.15548307243516
ONEWEB-0235             
1 48771U 21045E   26161.51131630  .00000027  00000+0  37715-4 0  9990
2 48771  87.9010 260.5205 0001541 105.0218 255.1083 13.15548552243509
ONEWEB-0242             
1 48772U 21045F   26161.58102040 -.00001133  00000+0 -30425-2 0  9991
2 48772  87.9011 260.5034 0001878  96.9573 263.1771 13.15554632243550
ONEWEB-0241             
1 48773U 21045G   26161.56836479  .00000185  00000+0  45854-3 0  9997
2 48773  87.8996 260.5250 0001720 112.5054 247.6258 13.15549127243467
ONEWEB-0243             
1 48774U 21045H   26161.52398868 -.00000078  00000+0 -24009-3 0  9991
2 48774  87.9002 260.5460 0001531  89.6955 270.4351 13.15548922243486
ONEWEB-0222             
1 48775U 21045J   26161.50735112  .00000158  00000+0  38607-3 0  9993
2 48775  87.9011 260.5164 0001777 105.8060 254.3266 13.15548936243524
ONEWEB-0244             
1 48776U 21045K   26161.53349664 -.00000094  00000+0 -28507-3 0  9999
2 48776  87.9015 260.5053 0001826 100.6191 259.5145 13.15548578244097
ONEWEB-0247             
1 48777U 21045L   26161.53031653 -.00000084  00000+0 -25813-3 0  9992
2 48777  87.9000 260.5391 0001148  93.9983 266.1279 13.15547458243533
ONEWEB-0245             
1 48778U 21045M   26161.52556402 -.00000082  00000+0 -25255-3 0  9994
2 48778  87.9010 260.5185 0001877 105.9583 254.1754 13.15548077243505
ONEWEB-0229             
1 48779U 21045N   26161.52081933 -.00000030  00000+0 -11465-3 0  9998
2 48779  87.9010 260.5176 0001837  97.9311 262.2028 13.15548783243532
ONEWEB-0228             
1 48780U 21045P   26161.55421507 -.00000230  00000+0 -64571-3 0  9996
2 48780  87.9012 260.5033 0001877 101.8222 258.3119 13.15548593243455
ONEWEB-0232             
1 48781U 21045Q   26161.52873429 -.00000074  00000+0 -23004-3 0  9990
2 48781  87.9013 260.5093 0001965 103.1226 257.0124 13.15550183243775
ONEWEB-0231             
1 48782U 21045R   26161.50655553  .00000132  00000+0  31712-3 0  9993
2 48782  87.9007 260.5273 0001729 104.4695 255.6628 13.15548326243466
ONEWEB-0234             
1 48783U 21045S   26161.54445013 -.00000021  00000+0 -89994-4 0  9991
2 48783  87.9006 260.5013 0002592 115.2024 244.9375 13.15549065243600
ONEWEB-0238             
1 48784U 21045T   26161.54470974 -.00000018  00000+0 -82317-4 0  9994
2 48784  87.9013 260.4955 0002276 109.4379 250.6998 13.15551018243505
ONEWEB-0240             
1 48785U 21045U   26161.56597054  .00000146  00000+0  35300-3 0  9995
2 48785  87.9012 260.5015 0001776 109.9770 250.1551 13.15547670243539
ONEWEB-0246             
1 48786U 21045V   26161.56043757  .00000132  00000+0  31532-3 0  9990
2 48786  87.9010 260.5071 0001866  98.4917 261.6425 13.15549287243404
ONEWEB-0210             
1 48787U 21045W   26161.53507080 -.00000145  00000+0 -41972-3 0  9997
2 48787  87.9015 260.5093 0001256  79.7956 280.3316 13.15550715243441
ONEWEB-0214             
1 48788U 21045X   26161.54379295 -.00000038  00000+0 -13583-3 0  9992
2 48788  87.9011 260.5041 0001914  90.0442 270.0908 13.15548694243411
ONEWEB-0221             
1 48789U 21045Y   26161.55092585  .00000032  00000+0  50008-4 0  9994
2 48789  87.9008 260.5115 0001766 103.1214 257.0114 13.15547987243506
ONEWEB-0213             
1 48790U 21045Z   26161.53981676 -.00000085  00000+0 -25931-3 0  9998
2 48790  87.9010 260.5170 0001661 100.3454 259.7864 13.15547244243564
ONEWEB-0212             
1 48791U 21045AA  26161.51685955  .00000026  00000+0  34583-4 0  9995
2 48791  87.9011 260.5158 0001995 101.9865 258.1489 13.15550339243559
ONEWEB-0227             
1 48792U 21045AB  26161.51606985  .00000046  00000+0  87561-4 0  9998
2 48792  87.9009 260.5169 0001892 102.8089 257.3253 13.15549059243505
ONEWEB-0226             
1 48793U 21045AC  26161.50972312  .00000089  00000+0  20207-3 0  9998
2 48793  87.9007 260.5231 0001695  97.4822 262.6501 13.15550283243471
ONEWEB-0224             
1 48794U 21045AD  26161.54932420 -.00000245  00000+0 -68559-3 0  9997
2 48794  87.8998 260.5495 0002127 125.9160 234.2168 13.15547798243409
ONEWEB-0233             
1 48795U 21045AE  26161.63001306  .00000099  00000+0  22786-3 0  9995
2 48795  87.8999 260.5411 0001706 106.7244 253.4073 13.15548311243434
ONEWEB-0190             
1 48796U 21045AF  26161.54139941 -.00000050  00000+0 -16560-3 0  9995
2 48796  87.9002 260.5204 0001268 104.1955 255.9316 13.15546951243496
