OBJECT_NAME,OBJECT_ID,EPOCH,MEAN_MOTION,ECCENTRICITY,INCLINATION,RA_OF_ASC_NODE,ARG_OF_PERICENTER,MEAN_ANOMALY,EPHEMERIS_TYPE,CLASSIFICATION_TYPE,NORAD_CAT_ID,ELEMENT_SET_NO,REV_AT_EPOCH,BSTAR,MEAN_MOTION_DOT,MEAN_MOTION_DDOT
ONEWEB-0211,2021-045A,2026-06-10T12:01:42.642336,13.16196509,.00016752,87.9006,260.4148,121.5821,238.5473,0,U,48767,999,24356,.30118125E-3,.127E-5,0
ONEWEB-0223,2021-045B,2026-06-10T13:49:50.337984,13.15543156,.00015836,87.9011,260.5066,108.1338,251.9965,0,U,48768,999,24353,-.21513269E-3,-.68E-6,0
ONEWEB-0230,2021-045C,2026-06-10T13:08:46.307616,13.15548107,.0002051,87.8999,260.5265,96.6529,263.4835,0,U,48769,999,24379,-.943604E-5,.9E-7,0
ONEWEB-0237,2021-045D,2026-06-10T12:52:46.421760,13.15548307,.00016846,87.9001,260.5305,100.9059,259.2261,0,U,48770,999,24351,-.90820916E-3,-.329E-5,0
ONEWEB-0235,2021-045E,2026-06-10T12:16:17.728320,13.15548552,.00015416,87.9010,260.5205,105.0218,255.1083,0,U,48771,999,24350,.37715082E-4,.27E-6,0
ONEWEB-0242,2021-045F,2026-06-10T13:56:40.162560,13.15554632,.00018787,87.9011,260.5034,96.9573,263.1771,0,U,48772,999,24355,-.30425418E-2,-.1133E-4,0
ONEWEB-0241,2021-045G,2026-06-10T13:38:26.717856,13.15549127,.00017203,87.8996,260.5250,112.5054,247.6258,0,U,48773,999,24346,.45853532E-3,.185E-5,0
ONEWEB-0243,2021-045H,2026-06-10T12:34:32.621952,13.15548922,.00015311,87.9002,260.5460,89.6955,270.4351,0,U,48774,999,24348,-.24008731E-3,-.78E-6,0
ONEWEB-0222,2021-045J,2026-06-10T12:10:35.136768,13.15548936,.00017773,87.9011,260.5164,105.8060,254.3266,0,U,48775,999,24352,.38607359E-3,.158E-5,0
ONEWEB-0244,2021-045K,2026-06-10T12:48:14.109696,13.15548578,.00018267,87.9015,260.5053,100.6191,259.5145,0,U,48776,999,24409,-.28507158E-3,-.94E-6,0
ONEWEB-0247,2021-045L,2026-06-10T12:43:39.348192,13.15547458,.00011487,87.9000,260.5391,93.9983,266.1279,0,U,48777,999,24353,-.25813241E-3,-.84E-6,0
ONEWEB-0245,2021-045M,2026-06-10T12:36:48.731328,13.15548077,.00018777,87.9010,260.5185,105.9583,254.1754,0,U,48778,999,24350,-.25254864E-3,-.82E-6,0
ONEWEB-0229,2021-045N,2026-06-10T12:29:58.790112,13.15548783,.00018374,87.9010,260.5176,97.9311,262.2028,0,U,48779,999,24353,-.11465265E-3,-.3E-6,0
ONEWEB-0228,2021-045P,2026-06-10T13:18:04.182048,13.15548593,.0001877,87.9012,260.5033,101.8222,258.3119,0,U,48780,999,24345,-.64570849E-3,-.23E-5,0
ONEWEB-0232,2021-045Q,2026-06-10T12:41:22.642656,13.15550183,.00019656,87.9013,260.5093,103.1226,257.0124,0,U,48781,999,24377,-.23003762E-3,-.74E-6,0
ONEWEB-0231,2021-045R,2026-06-10T12:09:26.397792,13.15548326,.00017297,87.9007,260.5273,104.4695,255.6628,0,U,48782,999,24346,.31712102E-3,.132E-5,0
ONEWEB-0234,2021-045S,2026-06-10T13:04:00.491232,13.15549065,.00025922,87.9006,260.5013,115.2024,244.9375,0,U,48783,999,24360,-.89994004E-4,-.21E-6,0
ONEWEB-0238,2021-045T,2026-06-10T13:04:22.921536,13.15551018,.00022769,87.9013,260.4955,109.4379,250.6998,0,U,48784,999,24350,-.82317045E-4,-.18E-6,0
ONEWEB-0240,2021-045U,2026-06-10T13:34:59.854656,13.15547670,.00017763,87.9012,260.5015,109.9770,250.1551,0,U,48785,999,24353,.35300185E-3,.146E-5,0
ONEWEB-0246,2021-045V,2026-06-10T13:27:01.806048,13.15549287,.0001866,87.9010,260.5071,98.4917,261.6425,0,U,48786,999,24340,.31532264E-3,.132E-5,0
ONEWEB-0210,2021-045W,2026-06-10T12:50:30.117120,13.15550715,.00012561,87.9015,260.5093,79.7956,280.3316,0,U,48787,999,24344,-.41971585E-3,-.145E-5,0
ONEWEB-0214,2021-045X,2026-06-10T13:03:03.710880,13.15548694,.00019146,87.9011,260.5041,90.0442,270.0908,0,U,48788,999,24341,-.13582795E-3,-.38E-6,0
ONEWEB-0221,2021-045Y,2026-06-10T13:13:19.993440,13.15547987,.00017664,87.9008,260.5115,103.1214,257.0114,0,U,48789,999,24350,.5000788E-4,.32E-6,0
ONEWEB-0213,2021-045Z,2026-06-10T12:57:20.168064,13.15547244,.00016613,87.9010,260.5170,100.3454,259.7864,0,U,48790,999,24356,-.25931324E-3,-.85E-6,0
ONEWEB-0212,2021-045AA,2026-06-10T12:24:16.665120,13.15550339,.00019958,87.9011,260.5158,101.9865,258.1489,0,U,48791,999,24355,.34583001E-4,.26E-6,0
ONEWEB-0227,2021-045AB,2026-06-10T12:23:08.435040,13.15549059,.00018927,87.9009,260.5169,102.8089,257.3253,0,U,48792,999,24350,.87561462E-4,.46E-6,0
ONEWEB-0226,2021-045AC,2026-06-10T12:14:00.077568,13.15550283,.00016956,87.9007,260.5231,97.4822,262.6501,0,U,48793,999,24347,.20207461E-3,.89E-6,0
ONEWEB-0224,2021-045AD,2026-06-10T13:11:01.610880,13.15547798,.00021278,87.8998,260.5495,125.9160,234.2168,0,U,48794,999,24340,-.68559116E-3,-.245E-5,0
ONEWEB-0233,2021-045AE,2026-06-10T15:07:13.128384,13.15548311,.00017065,87.8999,260.5411,106.7244,253.4073,0,U,48795,999,24343,.22786117E-3,.99E-6,0
ONEWEB-0190,2021-045AF,2026-06-10T12:59:36.909024,13.15546951,.00012684,87.9002,260.5204,104.1955,255.9316,0,U,48796,999,24349,-.16559828E-3,-.5E-6,0
